STARLINK-2402           
1 47819U 21018AJ  26068.74233043  .00001819  00000+0  73500-4 0  9996
2 47819  53.1600 242.8216 0001357  90.6083 269.5073 15.30217607276798
EOSSAT-1                
1 55053U 23001AW  26068.73619225  .00007695  00000+0  24844-3 0  9992
2 55053  97.3357 130.2294 0011263 110.3168 249.9285 15.32339828176689
