[{"OBJECT_NAME":"STARLINK-2402","OBJECT_ID":"2021-018AJ","EPOCH":"2026-03-09T17:48:57.350016","MEAN_MOTION":15.30217607,"ECCENTRICITY":0.00013566,"INCLINATION":53.16,"RA_OF_ASC_NODE":242.8216,"ARG_OF_PERICENTER":90.6083,"MEAN_ANOMALY":269.5073,"EPHEMERIS_TYPE":0,"CLASSIFICATION_TYPE":"U","NORAD_CAT_ID":47819,"ELEMENT_SET_NO":999,"REV_AT_EPOCH":27679,"BSTAR":7.3500345e-5,"MEAN_MOTION_DOT":1.819e-5,"MEAN_MOTION_DDOT":0},{"OBJECT_NAME":"EOSSAT-1","OBJECT_ID":"2023-001AW","EPOCH":"2026-03-09T17:40:07.010400","MEAN_MOTION":15.32339828,"ECCENTRICITY":0.00112629,"INCLINATION":97.3357,"RA_OF_ASC_NODE":130.2294,"ARG_OF_PERICENTER":110.3168,"MEAN_ANOMALY":249.9285,"EPHEMERIS_TYPE":0,"CLASSIFICATION_TYPE":"U","NORAD_CAT_ID":55053,"ELEMENT_SET_NO":999,"REV_AT_EPOCH":17668,"BSTAR":0.00024844399,"MEAN_MOTION_DOT":7.695e-5,"MEAN_MOTION_DDOT":0}]
